start=new Date('2023-05-22T00:00:00.000Z').valueOf();
sats=[{"TIME_SYSTEM":"UTC","ARG_OF_PERICENTER":"88.9117","GP_ID":"232279810","NORAD_CAT_ID":"44964","FILE":"3914061","DECAY_DATE":null,"MEAN_MOTION_DOT":"-0.00004695","REF_FRAME":"TEME","REV_AT_EPOCH":"18625","MEAN_MOTION":"15.06428778","TLE_LINE1":"1 44964U 20001BC  23141.91574714 -.00004695  00000-0 -29630-3 0  9998","MEAN_ANOMALY":"271.2024","MEAN_ELEMENT_THEORY":"SGP4","PERIAPSIS":"546.207","INCLINATION":"53.0538","ECCENTRICITY":"0.00013260","RA_OF_ASC_NODE":"218.0269","SITE":"AFETR","TLE_LINE2":"2 44964  53.0538 218.0269 0001326  88.9117 271.2024 15.06428778186255","COUNTRY_CODE":"US","BSTAR":"-0.00029630000000","ELEMENT_SET_NO":"999","CENTER_NAME":"EARTH","EPHEMERIS_TYPE":"0","SEMIMAJOR_AXIS":"6925.260","OBJECT_ID":"2020-001BC","LAUNCH_DATE":"2020-01-07","RCS_SIZE":"LARGE","EPOCH":"2023-05-21T21:58:40.552896","OBJECT_NAME":"STARLINK-1086","CLASSIFICATION_TYPE":"U","PERIOD":"95.590","MEAN_MOTION_DDOT":"0.0000000000000","APOAPSIS":"548.044","OBJECT_TYPE":"PAYLOAD"},{"REF_FRAME":"TEME","REV_AT_EPOCH":"18623","MEAN_MOTION":"15.14408827","TLE_LINE1":"1 44966U 20001BE  23141.48556515  .00029581  00000-0  16018-2 0  9995","MEAN_ELEMENT_THEORY":"SGP4","MEAN_ANOMALY":"24.5291","PERIAPSIS":"522.401","INCLINATION":"53.0525","ECCENTRICITY":"0.00005430","RA_OF_ASC_NODE":"216.6021","SITE":"AFETR","TIME_SYSTEM":"UTC","ARG_OF_PERICENTER":"335.5675","GP_ID":"232258695","NORAD_CAT_ID":"44966","FILE":"3913962","DECAY_DATE":null,"MEAN_MOTION_DOT":"0.00029581","LAUNCH_DATE":"2020-01-07","RCS_SIZE":"LARGE","EPOCH":"2023-05-21T11:39:12.828960","OBJECT_NAME":"STARLINK-1088","CLASSIFICATION_TYPE":"U","PERIOD":"95.087","APOAPSIS":"523.151","MEAN_MOTION_DDOT":"0.0000000000000","OBJECT_TYPE":"PAYLOAD","TLE_LINE2":"2 44966  53.0525 216.6021 0000543 335.5675  24.5291 15.14408827186238","COUNTRY_CODE":"US","BSTAR":"0.00160180000000","ELEMENT_SET_NO":"999","CENTER_NAME":"EARTH","EPHEMERIS_TYPE":"0","SEMIMAJOR_AXIS":"6900.911","OBJECT_ID":"2020-001BE"},{"NORAD_CAT_ID":"44967","GP_ID":"232246343","TIME_SYSTEM":"UTC","ARG_OF_PERICENTER":"80.0640","MEAN_MOTION_DOT":"0.00019908","DECAY_DATE":null,"FILE":"3913738","MEAN_ELEMENT_THEORY":"SGP4","MEAN_ANOMALY":"280.0416","MEAN_MOTION":"15.06461240","TLE_LINE1":"1 44967U 20001BF  23141.49555541  .00019908  00000-0  13494-2 0  9992","REV_AT_EPOCH":"18619","REF_FRAME":"TEME","RA_OF_ASC_NODE":"219.9165","SITE":"AFETR","ECCENTRICITY":"0.00005990","PERIAPSIS":"546.611","INCLINATION":"53.0536","BSTAR":"0.00134940000000","TLE_LINE2":"2 44967  53.0536 219.9165 0000599  80.0640 280.0416 15.06461240186193","COUNTRY_CODE":"US","SEMIMAJOR_AXIS":"6925.161","OBJECT_ID":"2020-001BF","EPHEMERIS_TYPE":"0","CENTER_NAME":"EARTH","ELEMENT_SET_NO":"999","OBJECT_NAME":"STARLINK-1089","RCS_SIZE":"LARGE","EPOCH":"2023-05-21T11:53:35.987424","LAUNCH_DATE":"2020-01-07","APOAPSIS":"547.441","MEAN_MOTION_DDOT":"0.0000000000000","OBJECT_TYPE":"PAYLOAD","CLASSIFICATION_TYPE":"U","PERIOD":"95.588"},{"CLASSIFICATION_TYPE":"U","PERIOD":"95.588","APOAPSIS":"547.792","MEAN_MOTION_DDOT":"0.0000000000000","OBJECT_TYPE":"PAYLOAD","LAUNCH_DATE":"2020-01-07","RCS_SIZE":"LARGE","EPOCH":"2023-05-21T14:59:21.763680","OBJECT_NAME":"STARLINK-1090","ELEMENT_SET_NO":"999","CENTER_NAME":"EARTH","EPHEMERIS_TYPE":"0","SEMIMAJOR_AXIS":"6925.162","OBJECT_ID":"2020-001BG","TLE_LINE2":"2 44968  53.0530 219.3344 0001105  96.9308 263.1806 15.06460983186213","COUNTRY_CODE":"US","BSTAR":"0.00117950000000","PERIAPSIS":"546.261","INCLINATION":"53.0530","ECCENTRICITY":"0.00011050","RA_OF_ASC_NODE":"219.3344","SITE":"AFETR","REF_FRAME":"TEME","REV_AT_EPOCH":"18621","MEAN_MOTION":"15.06460983","TLE_LINE1":"1 44968U 20001BG  23141.62455745  .00017360  00000-0  11795-2 0  9995","MEAN_ANOMALY":"263.1806","MEAN_ELEMENT_THEORY":"SGP4","FILE":"3914061","DECAY_DATE":null,"MEAN_MOTION_DOT":"0.00017360","TIME_SYSTEM":"UTC","ARG_OF_PERICENTER":"96.9308","GP_ID":"232281062","NORAD_CAT_ID":"44968"},{"DECAY_DATE":null,"FILE":"3914061","MEAN_MOTION_DOT":"0.00019803","TIME_SYSTEM":"UTC","ARG_OF_PERICENTER":"96.6349","NORAD_CAT_ID":"44969","GP_ID":"232279310","INCLINATION":"53.0531","PERIAPSIS":"546.360","SITE":"AFETR","RA_OF_ASC_NODE":"219.3664","ECCENTRICITY":"0.00009370","REV_AT_EPOCH":"18620","REF_FRAME":"TEME","MEAN_ANOMALY":"263.4747","MEAN_ELEMENT_THEORY":"SGP4","TLE_LINE1":"1 44969U 20001BH  23141.61718214  .00019803  00000-0  13422-2 0  9991","MEAN_MOTION":"15.06466826","CENTER_NAME":"EARTH","ELEMENT_SET_NO":"999","OBJECT_ID":"2020-001BH","SEMIMAJOR_AXIS":"6925.144","EPHEMERIS_TYPE":"0","BSTAR":"0.00134220000000","COUNTRY_CODE":"US","TLE_LINE2":"2 44969  53.0531 219.3664 0000937  96.6349 263.4747 15.06466826186202","OBJECT_TYPE":"PAYLOAD","MEAN_MOTION_DDOT":"0.0000000000000","APOAPSIS":"547.658","PERIOD":"95.588","CLASSIFICATION_TYPE":"U","LAUNCH_DATE":"2020-01-07","OBJECT_NAME":"STARLINK-1092","EPOCH":"2023-05-21T14:48:44.536896","RCS_SIZE":"LARGE"},{"BSTAR":"-0.00023160000000","COUNTRY_CODE":"US","TLE_LINE2":"2 44970  53.0538 217.9853 0000906  80.4564 279.6527 15.06411767186244","CENTER_NAME":"EARTH","ELEMENT_SET_NO":"999","SEMIMAJOR_AXIS":"6925.312","OBJECT_ID":"2020-001BJ","EPHEMERIS_TYPE":"0","LAUNCH_DATE":"2020-01-07","OBJECT_NAME":"STARLINK-1093","RCS_SIZE":"LARGE","EPOCH":"2023-05-21T22:14:36.535200","APOAPSIS":"547.805","MEAN_MOTION_DDOT":"0.0000000000000","OBJECT_TYPE":"PAYLOAD","CLASSIFICATION_TYPE":"U","PERIOD":"95.591","TIME_SYSTEM":"UTC","ARG_OF_PERICENTER":"80.4564","NORAD_CAT_ID":"44970","GP_ID":"232279560","DECAY_DATE":null,"FILE":"3914061","MEAN_MOTION_DOT":"-0.00003730","REV_AT_EPOCH":"18624","REF_FRAME":"TEME","MEAN_ELEMENT_THEORY":"SGP4","MEAN_ANOMALY":"279.6527","MEAN_MOTION":"15.06411767","TLE_LINE1":"1 44970U 20001BJ  23141.92681175 -.00003730  00000-0 -23160-3 0  9997","PERIAPSIS":"546.550","INCLINATION":"53.0538","RA_OF_ASC_NODE":"217.9853","SITE":"AFETR","ECCENTRICITY":"0.00009060"},{"EPHEMERIS_TYPE":"0","OBJECT_ID":"2020-001BL","SEMIMAJOR_AXIS":"6925.390","ELEMENT_SET_NO":"999","CENTER_NAME":"EARTH","COUNTRY_CODE":"US","TLE_LINE2":"2 44972  53.0543 219.2994 0001126  88.4448 271.6670 15.06386373186219","BSTAR":"-0.00008363100000","PERIOD":"95.593","CLASSIFICATION_TYPE":"U","OBJECT_TYPE":"PAYLOAD","MEAN_MOTION_DDOT":"0.0000000000000","APOAPSIS":"548.035","EPOCH":"2023-05-21T15:10:02.103456","RCS_SIZE":"LARGE","OBJECT_NAME":"STARLINK-1107","LAUNCH_DATE":"2020-01-07","MEAN_MOTION_DOT":"-0.00001526","FILE":"3914061","DECAY_DATE":null,"GP_ID":"232280812","NORAD_CAT_ID":"44972","ARG_OF_PERICENTER":"88.4448","TIME_SYSTEM":"UTC","ECCENTRICITY":"0.00011260","SITE":"AFETR","RA_OF_ASC_NODE":"219.2994","INCLINATION":"53.0543","PERIAPSIS":"546.476","TLE_LINE1":"1 44972U 20001BL  23141.63196879 -.00001526  00000-0 -83631-4 0  9990","MEAN_MOTION":"15.06386373","MEAN_ANOMALY":"271.6670","MEAN_ELEMENT_THEORY":"SGP4","REF_FRAME":"TEME","REV_AT_EPOCH":"18621"},{"GP_ID":"232280562","NORAD_CAT_ID":"44973","TIME_SYSTEM":"UTC","ARG_OF_PERICENTER":"72.8285","MEAN_MOTION_DOT":"0.00019257","FILE":"3914061","DECAY_DATE":null,"TLE_LINE1":"1 44973U 20001BM  23141.60982086  .00019257  00000-0  13060-2 0  9996","MEAN_MOTION":"15.06461022","MEAN_ELEMENT_THEORY":"SGP4","MEAN_ANOMALY":"287.2836","REF_FRAME":"TEME","REV_AT_EPOCH":"18620","ECCENTRICITY":"0.00012080","SITE":"AFETR","RA_OF_ASC_NODE":"219.4051","INCLINATION":"53.0530","PERIAPSIS":"546.190","COUNTRY_CODE":"US","TLE_LINE2":"2 44973  53.0530 219.4051 0001208  72.8285 287.2836 15.06461022186200","BSTAR":"0.00130600000000","EPHEMERIS_TYPE":"0","OBJECT_ID":"2020-001BM","SEMIMAJOR_AXIS":"6925.162","ELEMENT_SET_NO":"999","CENTER_NAME":"EARTH","EPOCH":"2023-05-21T14:38:08.522304","RCS_SIZE":"LARGE","OBJECT_NAME":"STARLINK-1115","LAUNCH_DATE":"2020-01-07","PERIOD":"95.588","CLASSIFICATION_TYPE":"U","OBJECT_TYPE":"PAYLOAD","MEAN_MOTION_DDOT":"0.0000000000000","APOAPSIS":"547.863"},{"OBJECT_TYPE":"PAYLOAD","MEAN_MOTION_DDOT":"0.0000000000000","APOAPSIS":"547.801","PERIOD":"95.590","CLASSIFICATION_TYPE":"U","OBJECT_NAME":"STARLINK-1132","EPOCH":"2023-05-21T07:38:50.396640","RCS_SIZE":"LARGE","LAUNCH_DATE":"2020-01-29","OBJECT_ID":"2020-006A","SEMIMAJOR_AXIS":"6925.258","EPHEMERIS_TYPE":"0","CENTER_NAME":"EARTH","ELEMENT_SET_NO":"999","BSTAR":"0.00053342000000","TLE_LINE2":"2 45044  53.0528 180.7122 0000978  92.2163 267.8938 15.06429475182490","COUNTRY_CODE":"US","SITE":"AFETR","RA_OF_ASC_NODE":"180.7122","ECCENTRICITY":"0.00009780","INCLINATION":"53.0528","PERIAPSIS":"546.446","MEAN_ANOMALY":"267.8938","MEAN_ELEMENT_THEORY":"SGP4","TLE_LINE1":"1 45044U 20006A   23141.31863885  .00007679  00000-0  53342-3 0  9997","MEAN_MOTION":"15.06429475","REV_AT_EPOCH":"18249","REF_FRAME":"TEME","MEAN_MOTION_DOT":"0.00007679","DECAY_DATE":null,"FILE":"3913738","NORAD_CAT_ID":"45044","GP_ID":"232246099","TIME_SYSTEM":"UTC","ARG_OF_PERICENTER":"92.2163"},{"CLASSIFICATION_TYPE":"U","PERIOD":"95.589","APOAPSIS":"547.896","MEAN_MOTION_DDOT":"0.0000000000000","OBJECT_TYPE":"PAYLOAD","RCS_SIZE":"LARGE","EPOCH":"2023-05-21T10:29:58.758432","OBJECT_NAME":"STARLINK-1120","LAUNCH_DATE":"2020-01-29","EPHEMERIS_TYPE":"0","SEMIMAJOR_AXIS":"6925.202","OBJECT_ID":"2020-006B","ELEMENT_SET_NO":"999","CENTER_NAME":"EARTH","TLE_LINE2":"2 45045  53.0522 200.1650 0001197  84.8673 275.2453 15.06447722182237","COUNTRY_CODE":"US","BSTAR":"0.00101970000000","ECCENTRICITY":"0.00011970","RA_OF_ASC_NODE":"200.1650","SITE":"AFETR","PERIAPSIS":"546.238","INCLINATION":"53.0522","MEAN_MOTION":"15.06447722","TLE_LINE1":"1 45045U 20006B   23141.43748563  .00014959  00000-0  10197-2 0  9995","MEAN_ELEMENT_THEORY":"SGP4","MEAN_ANOMALY":"275.2453","REF_FRAME":"TEME","REV_AT_EPOCH":"18223","MEAN_MOTION_DOT":"0.00014959","FILE":"3913738","DECAY_DATE":null,"GP_ID":"232246849","NORAD_CAT_ID":"45045","ARG_OF_PERICENTER":"84.8673","TIME_SYSTEM":"UTC"}];
